[{"OBJECT_NAME":"STARLINK-5002","OBJECT_ID":"2022-119AN","EPOCH":"2026-03-09T22:09:08.576352","MEAN_MOTION":15.08857317,"ECCENTRICITY":0.00010895,"INCLINATION":53.2182,"RA_OF_ASC_NODE":312.8242,"ARG_OF_PERICENTER":73.3966,"MEAN_ANOMALY":286.7145,"EPHEMERIS_TYPE":0,"CLASSIFICATION_TYPE":"U","NORAD_CAT_ID":53922,"ELEMENT_SET_NO":999,"REV_AT_EPOCH":19186,"BSTAR":0.00014109006,"MEAN_MOTION_DOT":1.959e-5,"MEAN_MOTION_DDOT":0},{"OBJECT_NAME":"UNKNOWN","OBJECT_ID":"","EPOCH":"2026-03-07T17:21:07.805664","MEAN_MOTION":15.09455608,"ECCENTRICITY":0.0009057,"INCLINATION":82.8696,"RA_OF_ASC_NODE":177.6495,"ARG_OF_PERICENTER":167.3062,"MEAN_ANOMALY":192.8398,"EPHEMERIS_TYPE":0,"CLASSIFICATION_TYPE":"U","NORAD_CAT_ID":87725,"ELEMENT_SET_NO":999,"REV_AT_EPOCH":64668,"BSTAR":0.0060116,"MEAN_MOTION_DOT":0.00097492,"MEAN_MOTION_DDOT":0}]
